#aP2002  1  1  0  0  0.00000000      96     D ITR00 FIT  NGS
## 1147 172800.00000000   900.00000000 52275 0.0000000000000
+   27     1  2  3  4  5  6  7  8  9 10 11 13 14 15 17 18 20
+         21 22 23 25 26 27 28 29 30 31  0  0  0  0  0  0  0
+          0  0  0  0  0  0  0  0  0  0  0  0  0  0  0  0  0
+          0  0  0  0  0  0  0  0  0  0  0  0  0  0  0  0  0
+          0  0  0  0  0  0  0  0  0  0  0  0  0  0  0  0  0
++         4  4  4  4  4  4  0  3  4  4  4  4  4  4  5  4  4
++         4  4  4  4  4  3  4  4  3  4  0  0  0  0  0  0  0
++         0  0  0  0  0  0  0  0  0  0  0  0  0  0  0  0  0
++         0  0  0  0  0  0  0  0  0  0  0  0  0  0  0  0  0
++         0  0  0  0  0  0  0  0  0  0  0  0  0  0  0  0  0
%c cc cc ccc ccc cccc cccc cccc cccc ccccc ccccc ccccc ccccc
%c cc cc ccc ccc cccc cccc cccc cccc ccccc ccccc ccccc ccccc
%f  0.0000000  0.000000000  0.00000000000  0.000000000000000
%f  0.0000000  0.000000000  0.00000000000  0.000000000000000
%i    0    0    0    0      0      0      0      0         0
%i    0    0    0    0      0      0      0      0         0
/* CCCCCCCCCCCCCCCCCCCCCCCCCCCCCCCCCCCCCCCCCCCCCCCCCCCCCCCCC
/* CCCCCCCCCCCCCCCCCCCCCCCCCCCCCCCCCCCCCCCCCCCCCCCCCCCCCCCCC
/* CCCCCCCCCCCCCCCCCCCCCCCCCCCCCCCCCCCCCCCCCCCCCCCCCCCCCCCCC
/* CCCCCCCCCCCCCCCCCCCCCCCCCCCCCCCCCCCCCCCCCCCCCCCCCCCCCCCCC
*  2002  1  1 20  0  0.00000000
P  1   9416.372457 -11816.034410 -21675.227855 999999.999999
P  2   9425.571024 -17390.861049  18168.331796 999999.999999
P  3  22175.682828   9485.584588  11208.199620 999999.999999
P  4  -7973.732375 -16977.416908 -18625.821281 999999.999999
P  5 -21958.297005  12736.218258  -7619.704048 999999.999999
P  6  -2285.319236  17819.533464 -19328.686434 999999.999999
P  7 -16091.323934 -20752.304908   5063.966319 999999.999999
P  8  -1728.756197 -23156.057449  12476.292734 999999.999999
P  9 -14530.857827  17218.363668  13424.600961 999999.999999
P 10 -25565.254755   1006.493883  -7567.002113 999999.999999
P 11  14379.729942 -18065.305509  13156.655892 999999.999999
P 13  -1638.059267 -19471.383966 -18034.386864 999999.999999
P 14  16097.152028  20671.298912   4116.645088 999999.999999
P 15  -1552.920964  24289.430823  10278.527924 999999.999999
P 17  -6346.620984  24851.728891   5428.721441 999999.999999
P 18  -4450.042298  15715.174813  20908.771894 999999.999999
P 20  19859.055759 -13328.489059 -11651.966296 999999.999999
P 21  10491.715552  12387.687747  21541.288381 999999.999999
P 22  23268.427527   2916.021527 -13293.601916 999999.999999
P 23 -18499.881058  13172.841543  14127.266854 999999.999999
P 25  11632.692540  13537.605291 -19423.243421 999999.999999
P 26 -18130.057335    308.307565  19482.775190 999999.999999
P 27   4214.410772 -25775.468134   2693.576869 999999.999999
P 28  -7029.888798 -13909.127041  21638.632786 999999.999999
P 29  19842.269883  17579.743576  -2116.275609 999999.999999
P 30 -11914.845857  16349.236236 -17371.849746 999999.999999
P 31  18219.251484  -1601.573206  19101.457559 999999.999999
*  2002  1  1 20 15  0.00000000
P  1  11188.092815 -10026.704647 -21737.684648 999999.999999
P  2  11273.378474 -17857.211575  16487.316732 999999.999999
P  3  22850.604835  10456.884894   8736.546050 999999.999999
P  4  -7280.262627 -18917.323950 -16949.730366 999999.999999
P  5 -22741.729115  12666.577970  -4932.062936 999999.999999
P  6  -4037.248255  16299.746655 -20364.539276 999999.999999
P  7 -15401.722931 -20486.428497   7746.926716 999999.999999
P  8  -1132.220483 -24365.306665  10031.870901 999999.999999
P  9 -14395.668786  15484.032084  15515.919903 999999.999999
P 10 -24640.246921    572.842395 -10201.739937 999999.999999
P 11  14340.616234 -16413.305049  15207.547562 999999.999999
P 13    -26.225723 -18056.263891 -19512.823425 999999.999999
P 14  15481.229511  20407.240416   6895.467899 999999.999999
P 15  -2073.303861  25231.245759   7636.435785 999999.999999
P 17  -6738.643305  25196.850283   2544.554290 999999.999999
P 18  -6752.467841  16150.888522  19927.760128 999999.999999
P 20  21053.842077 -13445.797570  -9141.200099 999999.999999
P 21   8181.124398  13030.403906  22112.391102 999999.999999
P 22  21854.750905   3644.705866 -15355.645404 999999.999999
P 23 -19910.802509  13334.089228  11763.686809 999999.999999
P 25  11092.048284  15680.773495 -18116.193365 999999.999999
P 26 -19599.154855  -1263.548599  18029.003872 999999.999999
P 27   4583.377403 -25817.336706   -157.067975 999999.999999
P 28  -4662.004039 -14582.942004  21815.363511 999999.999999
P 29  19763.667104  17819.321478    744.090317 999999.999999
P 30 -13748.280333  16709.923689 -15552.738876 999999.999999
P 31  19712.179320    -48.249325  17682.487373 999999.999999
*  2002  1  1 20 30  0.00000000
P  1  13040.459453  -8343.288052 -21420.323319 999999.999999
P  2  12918.627727 -18330.180424  14529.883194 999999.999999
P  3  23345.841078  11216.987004   6115.278184 999999.999999
P  4  -6734.658418 -20689.008429 -14977.404230 999999.999999
P  5 -23242.647811  12515.941982  -2158.907384 999999.999999
P  6  -5933.894482  14803.767178 -21043.375774 999999.999999
P  7 -14474.469354 -20070.360582  10299.755713 999999.999999
P  8   -662.884490 -25320.647036   7411.105512 999999.999999
P  9 -14307.523785  13524.499712  17329.876496 999999.999999
P 10 -23468.625116     -5.884193 -12663.141157 999999.999999
P 11  14347.762444 -14547.532556  16997.213385 999999.999999
P 13   1772.502445 -16632.779915 -20656.440432 999999.999999
P 14  14618.368499  19975.180578   9555.171467 999999.999999
P 15  -2460.521180  25900.681654   4861.142421 999999.999999
P 17  -7013.103311  25242.171774   -385.191610 999999.999999
P 18  -8904.414090  16669.478556  18602.476581 999999.999999
P 20  21964.905536 -13528.724938  -6473.831485 999999.999999
P 21   5864.678605  13818.095458  22318.773641 999999.999999
P 22  20280.675967   4525.364947 -17164.910686 999999.999999
P 23 -21048.310673  13493.905251   9200.734220 999999.999999
P 25  10676.779199  17679.240725 -16491.796411 999999.999999
P 26 -21011.799060  -2629.953439  16268.431021 999999.999999
P 27   4904.561113 -25553.306622  -3004.875246 999999.999999
P 28  -2331.345511 -15379.634628  21620.562487 999999.999999
P 29  19450.000357  17856.375985   3591.763407 999999.999999
P 30 -15358.017784  17083.719539 -13468.621946 999999.999999
P 31  21138.859713   1313.854055  15956.481261 999999.999999
*  2002  1  1 20 45  0.00000000
P  1  14933.251877  -6796.027231 -20728.892019 999999.999999
P  2  14340.558476 -18773.410353  12326.911634 999999.999999
P  3  23628.679040  11782.063550   3389.375292 999999.999999
P  4  -6319.127672 -22250.461598 -12743.051976 999999.999999
P  5 -23467.088003  12249.338920    651.711579 999999.999999
P  6  -7944.671485  13368.706398 -21353.689920 999999.999999
P  7 -13304.680632 -19541.926457  12680.102395 999999.999999
P  8   -291.881469 -25995.410574   4660.308109 999999.999999
P  9 -14295.062282  11374.587686  18834.199620 999999.999999
P 10 -22085.512999   -752.438184 -14909.205326 999999.999999
P 11  14427.128023 -12499.884916  18494.968874 999999.999999
P 13   3733.340639 -15242.028348 -21445.400455 999999.999999
P 14  13500.439889  19413.983440  12049.928469 999999.999999
P 15  -2746.907128  26274.792848   2001.281313 999999.999999
P 17  -7206.512460  24973.756084  -3308.027203 999999.999999
P 18 -10868.820245  17241.764845  16955.567095 999999.999999
P 20  22587.420260 -13538.478566  -3695.503369 999999.999999
P 21   3588.435397  14737.837290  22155.348802 999999.999999
P 22  18585.673216   5565.716442 -18691.452172 999999.999999
P 23 -21898.666239  13612.037160   6480.916445 999999.999999
P 25  10371.226261  19492.030864 -14579.363962 999999.999999
P 26 -22324.255765  -3784.013627  14232.338375 999999.999999
P 27   5213.637989 -24981.529652  -5798.739465 999999.999999
P 28    -82.492148 -16280.730603  21056.856662 999999.999999
P 29  18881.771629  17723.494581   6378.240441 999999.999999
P 30 -16723.609809  17434.481356 -11154.521827 999999.999999
P 31  22456.588781   2478.525974  13954.538067 999999.999999
*  2002  1  1 21  0  0.00000000
P  1  16822.324500  -5407.823918 -19675.751413 999999.999999
P  2  15525.629117 -19148.399627   9913.896518 999999.999999
P  3  23671.654609  12174.744576    605.522412 999999.999999
P  4  -6009.055255 -23565.292885 -10285.603710 999999.999999
P  5 -23429.158554  11834.676971   3451.006041 999999.999999
P  6 -10033.060758  12026.473265 -21290.557472 999999.999999
P  7 -11895.341949 -18940.273669  14848.664753 999999.999999
P  8     13.965196 -26370.935497   1827.917518 999999.999999
P  9 -14381.088304   9075.183225  20002.401542 999999.999999
P 10 -20531.208644  -1682.458081 -16901.476178 999999.999999
P 11  14599.186438 -10307.634518  19675.142138 999999.999999
P 13   5824.243209 -13920.965723 -21865.918596 999999.999999
P 14  12127.866992  18764.702966  14336.836949 999999.999999
P 15  -2968.615907  26339.137848   -893.306902 999999.999999
P 17  -7357.781429  24387.235262  -6171.569760 999999.999999
P 18 -12615.197203  17833.437404  15015.300698 999999.999999
P 20  22925.275888 -13437.129724   -853.802640 999999.999999
P 21   1396.052003  15768.890580  21622.906171 999999.999999
P 22  16811.025856   6766.139089 -19909.726128 999999.999999
P 23 -22456.855458  13647.453363   3649.932679 999999.999999
P 25  10153.245830  21083.379488 -12413.113442 999999.999999
P 26 -23493.820195  -4727.389351  11956.290672 999999.999999
P 27   5546.115836 -24109.420348  -8488.268640 999999.999999
P 28   2043.767759 -17260.712150  20133.135132 999999.999999
P 29  18047.178885  17457.423482   9056.316473 999999.999999
P 30 -17832.461864  17724.121354  -8649.522515 999999.999999
P 31  23624.023650   3447.829581  11712.276984 999999.999999
EOF
